NORAD_CAT_ID,OBJECT_NAME,OBJECT_TYPE,EPOCH,MEAN_MOTION,ECCENTRICITY,INCLINATION,RA_OF_ASC_NODE,ARG_OF_PERICENTER,MEAN_ANOMALY,BSTAR,MEAN_MOTION_DOT,MEAN_MOTION_DDOT,TLE_LINE0,TLE_LINE1,TLE_LINE2,SEMIMAJOR_AXIS,PERIOD,APOGEE,PERIGEE,DECAYED
53013.0,STARLINK-4177,PAYLOAD,2023-08-14 11:16:14,15.08845384,0.0001179,53.2189,335.9546,93.9597,266.153,0.00017353,2.475e-05,0.0,0 STARLINK-4177,1 53013U 22076AD  23226.46961127  .00002475  00000-0  17353-3 0  9990,2 53013  53.2189 335.9546 0001179  93.9597 266.1530 15.08845384 61812,6917.864,95.437,540.545,538.913,0.0
53013.0,STARLINK-4177,PAYLOAD,2023-08-14 23:59:19,15.08839497,0.0001218,53.2197,333.5742,79.6601,280.4528,0.00011364,1.521e-05,0.0,0 STARLINK-4177,1 53013U 22076AD  23226.99953379  .00001521  00000-0  11364-3 0  9995,2 53013  53.2197 333.5742 0001218  79.6601 280.4528 15.08839497 61896,6917.882,95.438,540.59,538.904,0.0
53013.0,STARLINK-4177,PAYLOAD,2023-08-15 17:28:33,15.08850894,0.0001177,53.2184,330.3048,85.8431,274.2696,0.00023468,3.45e-05,0.0,0 STARLINK-4177,1 53013U 22076AD  23227.72816749  .00003450  00000-0  23468-3 0  9997,2 53013  53.2184 330.3048 0001177  85.8431 274.2696 15.08850894 62005,6917.847,95.437,540.526,538.898,0.0
53013.0,STARLINK-4177,PAYLOAD,2023-08-15 23:50:06,15.08843432,0.0001265,53.2176,329.1115,76.2575,283.8558,5.063e-05,5.18e-06,0.0,0 STARLINK-4177,1 53013U 22076AD  23227.99312965  .00000518  00000-0  50630-4 0  9991,2 53013  53.2176 329.1115 0001265  76.2575 283.8558 15.08843432 62045,6917.87,95.437,540.61,538.86,0.0
53013.0,STARLINK-4177,PAYLOAD,2023-08-17 10:48:35,15.08839558,0.0001333,53.2151,322.573,88.2036,271.9108,0.00013842,1.916e-05,0.0,0 STARLINK-4177,1 53013U 22076AD  23229.45041361  .00001916  00000-0  13842-3 0  9999,2 53013  53.2151 322.5730 0001333  88.2036 271.9108 15.08839558 62266,6917.882,95.438,540.669,538.825,0.0
53013.0,STARLINK-4177,PAYLOAD,2023-08-18 12:14:46,15.08840652,0.0001467,53.2159,317.8159,90.7326,269.3834,0.00012913,1.768e-05,0.0,0 STARLINK-4177,1 53013U 22076AD  23230.51025627  .00001768  00000-0  12913-3 0  9998,2 53013  53.2159 317.8159 0001467  90.7326 269.3834 15.08840652 62426,6917.878,95.438,540.758,538.729,0.0
53013.0,STARLINK-4177,PAYLOAD,2023-08-20 11:56:20,15.08836448,0.0001308,53.2175,308.8966,91.9074,268.2068,2.7051e-05,1.43e-06,0.0,0 STARLINK-4177,1 53013U 22076AD  23232.49746027  .00000143  00000-0  27051-4 0  9997,2 53013  53.2175 308.8966 0001308  91.9074 268.2068 15.08836448 62725,6917.891,95.438,540.661,538.851,0.0
53013.0,STARLINK-4177,PAYLOAD,2023-08-21 11:47:13,15.08755949,0.0001803,53.2186,304.4353,127.928,232.1875,-0.00071914,-0.00011689,0.0,0 STARLINK-4177,1 53013U 22076AD  23233.49112757 -.00011689  00000-0 -71914-3 0  9990,2 53013  53.2186 304.4353 0001803 127.9280 232.1875 15.08755949 62876,6918.137,95.443,541.25,538.755,0.0
53013.0,STARLINK-4177,PAYLOAD,2023-08-21 18:08:39,15.08849901,0.000151,53.2184,303.2459,123.2679,236.8458,8.7301e-05,1.102e-05,0.0,0 STARLINK-4177,1 53013U 22076AD  23233.75600954  .00001102  00000-0  87301-4 0  9995,2 53013  53.2184 303.2459 0001510 123.2679 236.8458 15.08849901 62919,6917.85,95.437,540.76,538.671,0.0
53013.0,STARLINK-4177,PAYLOAD,2023-08-22 05:16:22,15.08838973,0.0001641,53.2188,301.1649,111.5185,248.5983,-4.75e-05,-1.044e-05,0.0,0 STARLINK-4177,1 53013U 22076AD  23234.21970391 -.00001044  00000-0 -47500-4 0  9996,2 53013  53.2188 301.1649 0001641 111.5185 248.5983 15.08838973 62985,6917.884,95.438,540.884,538.613,0.0
53013.0,STARLINK-4177,PAYLOAD,2023-08-23 11:28:41,15.08844086,0.0001353,53.2186,295.5148,99.3298,260.7847,0.00010896,1.447e-05,0.0,0 STARLINK-4177,1 53013U 22076AD  23235.47825902  .00001447  00000-0  10896-3 0  9994,2 53013  53.2186 295.5148 0001353  99.3298 260.7847 15.08844086 63170,6917.868,95.437,540.669,538.797,0.0
53013.0,STARLINK-4177,PAYLOAD,2023-08-24 12:54:52,15.088409,0.000127,53.2171,290.7561,90.5061,269.6077,6.2157e-05,7.02e-06,0.0,0 STARLINK-4177,1 53013U 22076AD  23236.53810289  .00000702  00000-0  62157-4 0  9995,2 53013  53.2171 290.7561 0001270  90.5061 269.6077 15.08840900 62868,6917.878,95.437,540.621,538.864,0.0
53013.0,STARLINK-4177,PAYLOAD,2023-08-25 11:10:15,15.08844151,0.0001314,53.2166,286.5927,88.7608,271.3535,4.8649e-05,4.87e-06,0.0,0 STARLINK-4177,1 53013U 22076AD  23237.46546158  .00000487  00000-0  48649-4 0  9999,2 53013  53.2166 286.5927 0001314  88.7608 271.3535 15.08844151 63004,6917.868,95.437,540.642,538.824,0.0
53013.0,STARLINK-4177,PAYLOAD,2023-08-26 09:25:40,15.08839658,0.0001444,53.2168,282.4302,80.0846,280.0309,7.686e-05,9.35e-06,0.0,0 STARLINK-4177,1 53013U 22076AD  23238.39282501  .00000935  00000-0  76860-4 0  9995,2 53013  53.2168 282.4302 0001444  80.0846 280.0309 15.08839658 63610,6917.881,95.438,540.745,538.747,0.0
53013.0,STARLINK-4177,PAYLOAD,2023-08-27 09:16:26,15.08844491,0.0001457,53.2169,277.9701,82.4036,277.7121,8.2216e-05,1.021e-05,0.0,0 STARLINK-4177,1 53013U 22076AD  23239.38642147  .00001021  00000-0  82216-4 0  9990,2 53013  53.2169 277.9701 0001457  82.4036 277.7121 15.08844491 63294,6917.867,95.437,540.74,538.724,0.0
53013.0,STARLINK-4177,PAYLOAD,2023-08-28 02:45:41,15.08838671,0.0001548,53.2178,274.6992,97.8868,262.23,3.9276e-05,3.37e-06,0.0,0 STARLINK-4177,1 53013U 22076AD  23240.11506521  .00000337  00000-0  39276-4 0  9995,2 53013  53.2178 274.6992 0001548  97.8868 262.2300 15.08838671 63879,6917.884,95.438,540.82,538.679,0.0
53013.0,STARLINK-4177,PAYLOAD,2023-08-28 09:07:14,15.08838978,0.0001419,53.2168,273.5093,93.0006,267.1148,3.7002e-05,3.01e-06,0.0,0 STARLINK-4177,1 53013U 22076AD  23240.38002505  .00000301  00000-0  37002-4 0  9993,2 53013  53.2168 273.5093 0001419  93.0006 267.1148 15.08838978 63444,6917.884,95.438,540.73,538.767,0.0
53013.0,STARLINK-4177,PAYLOAD,2023-08-29 08:58:01,15.08839805,0.000123,53.2164,269.0487,91.2612,268.8521,2.5527e-05,1.18e-06,0.0,0 STARLINK-4177,1 53013U 22076AD  23241.37362487  .00000118  00000-0  25527-4 0  9996,2 53013  53.2164 269.0487 0001230  91.2612 268.8521 15.08839805 64063,6917.881,95.438,540.597,538.895,0.0
53013.0,STARLINK-4177,PAYLOAD,2023-08-30 07:13:25,15.08832828,0.000124,53.2168,264.8856,89.755,270.3584,1.7204e-05,-1.4e-07,0.0,0 STARLINK-4177,1 53013U 22076AD  23242.30099214 -.00000014  00000-0  17204-4 0  9994,2 53013  53.2168 264.8856 0001240  89.7550 270.3584 15.08832828 64205,6917.902,95.438,540.625,538.909,0.0
53013.0,STARLINK-4177,PAYLOAD,2023-08-30 18:21:07,15.08835831,0.0001243,53.2169,262.8042,90.6688,269.4446,7.9577e-06,-1.61e-06,0.0,0 STARLINK-4177,1 53013U 22076AD  23242.76467211 -.00000161  00000-0  79577-5 0  9995,2 53013  53.2169 262.8042 0001243  90.6688 269.4446 15.08835831 63805,6917.893,95.438,540.618,538.898,0.0
53013.0,STARLINK-4177,PAYLOAD,2023-08-31 02:18:03,15.08823917,0.0001416,53.2175,261.3177,95.6232,264.4922,7.3811e-05,8.86e-06,0.0,0 STARLINK-4177,1 53013U 22076AD  23243.09587787  .00000886  00000-0  73811-4 0  9990,2 53013  53.2175 261.3177 0001416  95.6232 264.4922 15.08823917 64321,6917.93,95.439,540.774,538.815,0.0
53013.0,STARLINK-4177,PAYLOAD,2023-09-01 02:08:50,15.08836504,8.6e-05,53.2174,256.8568,70.4984,289.6101,9.5819e-05,1.237e-05,0.0,0 STARLINK-4177,1 53013U 22076AD  23244.08947192  .00001237  00000-0  95819-4 0  9993,2 53013  53.2174 256.8568 0000860  70.4984 289.6101 15.08836504 64470,6917.891,95.438,540.351,539.161,0.0
53013.0,STARLINK-4177,PAYLOAD,2023-09-01 18:02:41,15.08842177,0.0001153,53.2168,253.8826,81.8539,278.2584,9.1786e-05,1.173e-05,0.0,0 STARLINK-4177,1 53013U 22076AD  23244.75186882  .00001173  00000-0  91786-4 0  9996,2 53013  53.2168 253.8826 0001153  81.8539 278.2584 15.08842177 64107,6917.874,95.437,540.536,538.941,0.0
53013.0,STARLINK-4177,PAYLOAD,2023-09-02 06:45:46,15.08834555,6.25e-05,53.2175,251.5041,88.4956,271.6108,0.0001535,2.156e-05,0.0,0 STARLINK-4177,1 53013U 22076AD  23245.28179102  .00002156  00000-0  15350-3 0  9996,2 53013  53.2175 251.5041 0000625  88.4956 271.6108 15.08834555 64658,6917.897,95.438,540.194,539.33,0.0
53013.0,STARLINK-4177,PAYLOAD,2023-09-02 17:53:28,15.08842409,0.0001391,53.2166,249.4229,79.2064,280.9084,4.023e-05,3.52e-06,0.0,0 STARLINK-4177,1 53013U 22076AD  23245.74547026  .00000352  00000-0  40230-4 0  9993,2 53013  53.2166 249.4229 0001391  79.2064 280.9084 15.08842409 64250,6917.873,95.437,540.7,538.776,0.0
53013.0,STARLINK-4177,PAYLOAD,2023-09-03 11:22:42,15.08847805,0.0001364,53.2167,246.1504,89.5496,270.5652,8.3641e-05,1.044e-05,0.0,0 STARLINK-4177,1 53013U 22076AD  23246.47410398  .00001044  00000-0  83641-4 0  9997,2 53013  53.2167 246.1504 0001364  89.5496 270.5652 15.08847805 64367,6917.857,95.437,540.665,538.778,0.0
53013.0,STARLINK-4177,PAYLOAD,2023-09-03 17:44:16,15.08833439,0.000135,53.2153,244.961,96.2998,263.8148,-1.7635e-05,-5.68e-06,0.0,0 STARLINK-4177,1 53013U 22076AD  23246.73907539 -.00000568  00000-0 -17635-4 0  9996,2 53013  53.2153 244.9610 0001350  96.2998 263.8148 15.08833439 64872,6917.9,95.438,540.699,538.832,0.0
53013.0,STARLINK-4177,PAYLOAD,2023-09-04 06:27:21,15.08834934,0.0001362,53.2164,242.582,96.8559,263.2588,1.2123e-06,-2.69e-06,0.0,0 STARLINK-4177,1 53013U 22076AD  23247.26899527 -.00000269  00000-0  12123-5 0  9997,2 53013  53.2164 242.5820 0001362  96.8559 263.2588 15.08834934 64483,6917.896,95.438,540.703,538.819,0.0
53013.0,STARLINK-4177,PAYLOAD,2023-09-04 23:56:35,15.08837788,0.0001373,53.2166,239.3111,96.1041,264.0108,1.5729e-05,-3.8e-07,0.0,0 STARLINK-4177,1 53013U 22076AD  23247.99763487 -.00000038  00000-0  15729-4 0  9990,2 53013  53.2166 239.3111 0001373  96.1041 264.0108 15.08837788 65065,6917.887,95.438,540.702,538.802,0.0
53013.0,STARLINK-4177,PAYLOAD,2023-09-06 07:44:18,15.08837364,0.0001363,53.2168,233.3643,95.1073,265.0074,9.2686e-05,1.187e-05,0.0,0 STARLINK-4177,1 53013U 22076AD  23249.32243594  .00001187  00000-0  92686-4 0  9993,2 53013  53.2168 233.3643 0001363  95.1073 265.0074 15.08837364 65269,6917.888,95.438,540.696,538.811,0.0
